{
  "type": "FeatureCollection",
  "properties": {
    "titulo": "Plan de Trazado de Calles - Pre-Contratación de Bacheo y Pavimentación",
    "municipio": "Toluca",
    "fechaExportacion": "2026-09-30T18:39:48.207Z",
    "totalTramos": 48
  },
  "features": [
    {
      "type": "Feature",
      "geometry": {
        "type": "LineString",
        "coordinates": [
          [
            -99.69256,
            19.28399
          ],
          [
            -99.69193,
            19.28401
          ],
          [
            -99.69141,
            19.28402
          ],
          [
            -99.69149,
            19.28591
          ],
          [
            -99.69243,
            19.28579
          ],
          [
            -99.69094,
            19.28599
          ],
          [
            -99.69084,
            19.28332
          ],
          [
            -99.69062,
            19.2806
          ],
          [
            -99.69062,
            19.27983
          ],
          [
            -99.69071,
            19.28033
          ],
          [
            -99.69096,
            19.28037
          ],
          [
            -99.69135,
            19.2857
          ],
          [
            -99.69139,
            19.28585
          ],
          [
            -99.69144,
            19.28612
          ],
          [
            -99.69156,
            19.2861
          ],
          [
            -99.69111,
            19.28049
          ],
          [
            -99.6915,
            19.28029
          ],
          [
            -99.69171,
            19.2839
          ],
          [
            -99.69184,
            19.2858
          ]
        ]
      },
      "properties": {
        "id": "TRAZO-1790783737638",
        "nombre": "Tramo Trazado en ADOLFO LOPEZ MATEOS (PARQUES NACIONALES I)",
        "delegacion": "ADOLFO LOPEZ MATEOS",
        "tipo_pavimento": "asfalto",
        "metros_lineales": 3298.1,
        "ancho_calzada_m": 7,
        "superficie_m2": 23086.7,
        "costo_unitario_m2": 595,
        "presupuesto_estimado_mxn": 13736586.5,
        "baches_previos_corredor": 2,
        "peticiones_ciudadanas_corredor": 0
      }
    },
    {
      "type": "Feature",
      "geometry": {
        "type": "LineString",
        "coordinates": [
          [
            -99.65022,
            19.29687
          ],
          [
            -99.64985,
            19.29691
          ],
          [
            -99.64974,
            19.2969
          ],
          [
            -99.64959,
            19.29685
          ],
          [
            -99.64947,
            19.29679
          ],
          [
            -99.64935,
            19.29674
          ],
          [
            -99.64918,
            19.29712
          ],
          [
            -99.64994,
            19.29735
          ],
          [
            -99.65015,
            19.29738
          ],
          [
            -99.65021,
            19.29742
          ],
          [
            -99.65025,
            19.29756
          ],
          [
            -99.65028,
            19.29764
          ],
          [
            -99.65033,
            19.29771
          ],
          [
            -99.6504,
            19.29772
          ],
          [
            -99.65056,
            19.29775
          ],
          [
            -99.65072,
            19.29772
          ],
          [
            -99.65037,
            19.29773
          ],
          [
            -99.65029,
            19.29765
          ],
          [
            -99.65023,
            19.2975
          ],
          [
            -99.65018,
            19.2974
          ],
          [
            -99.64927,
            19.29713
          ],
          [
            -99.64893,
            19.29752
          ],
          [
            -99.64883,
            19.29761
          ],
          [
            -99.64868,
            19.29767
          ],
          [
            -99.64849,
            19.29775
          ],
          [
            -99.64809,
            19.29793
          ],
          [
            -99.64786,
            19.29807
          ],
          [
            -99.64769,
            19.29817
          ],
          [
            -99.64754,
            19.29826
          ],
          [
            -99.64743,
            19.29831
          ],
          [
            -99.64693,
            19.29865
          ],
          [
            -99.64678,
            19.29875
          ],
          [
            -99.64663,
            19.29878
          ],
          [
            -99.64652,
            19.29879
          ],
          [
            -99.64706,
            19.29853
          ],
          [
            -99.64733,
            19.29833
          ],
          [
            -99.64751,
            19.29822
          ],
          [
            -99.64759,
            19.29813
          ],
          [
            -99.64778,
            19.29799
          ],
          [
            -99.64788,
            19.29796
          ],
          [
            -99.64882,
            19.29754
          ],
          [
            -99.64913,
            19.29712
          ],
          [
            -99.64911,
            19.2971
          ],
          [
            -99.64785,
            19.29753
          ],
          [
            -99.64693,
            19.29811
          ],
          [
            -99.64622,
            19.29814
          ],
          [
            -99.64613,
            19.2982
          ],
          [
            -99.64601,
            19.29818
          ],
          [
            -99.64594,
            19.29819
          ]
        ]
      },
      "properties": {
        "id": "TRAZO-1790783973995",
        "nombre": "Tramo Trazado en ARBOL DE LAS MANITAS (ZOPILOCALCO NORTE)",
        "delegacion": "ARBOL DE LAS MANITAS",
        "tipo_pavimento": "asfalto",
        "metros_lineales": 1563.5,
        "ancho_calzada_m": 7,
        "superficie_m2": 10944.5,
        "costo_unitario_m2": 595,
        "presupuesto_estimado_mxn": 6511977.5,
        "baches_previos_corredor": 2,
        "peticiones_ciudadanas_corredor": 1
      }
    },
    {
      "type": "Feature",
      "geometry": {
        "type": "LineString",
        "coordinates": [
          [
            -99.66034,
            19.29646
          ],
          [
            -99.66035,
            19.29644
          ],
          [
            -99.66031,
            19.29633
          ],
          [
            -99.66023,
            19.29613
          ],
          [
            -99.65995,
            19.29522
          ],
          [
            -99.66099,
            19.29582
          ],
          [
            -99.66094,
            19.29609
          ],
          [
            -99.66094,
            19.29612
          ],
          [
            -99.66097,
            19.29583
          ],
          [
            -99.66138,
            19.29617
          ],
          [
            -99.66116,
            19.29709
          ],
          [
            -99.66127,
            19.29688
          ],
          [
            -99.66202,
            19.29732
          ],
          [
            -99.66205,
            19.29734
          ],
          [
            -99.6626,
            19.29754
          ],
          [
            -99.66261,
            19.29779
          ],
          [
            -99.6626,
            19.29741
          ],
          [
            -99.6625,
            19.29726
          ],
          [
            -99.66242,
            19.29713
          ],
          [
            -99.66239,
            19.29707
          ],
          [
            -99.66235,
            19.29702
          ],
          [
            -99.66228,
            19.29692
          ],
          [
            -99.66221,
            19.29685
          ],
          [
            -99.66213,
            19.29679
          ],
          [
            -99.66207,
            19.29672
          ],
          [
            -99.662,
            19.29667
          ],
          [
            -99.66197,
            19.29665
          ],
          [
            -99.66189,
            19.29673
          ],
          [
            -99.66184,
            19.29669
          ],
          [
            -99.66189,
            19.29662
          ],
          [
            -99.66188,
            19.29656
          ],
          [
            -99.66143,
            19.29619
          ]
        ]
      },
      "properties": {
        "id": "TRAZO-1790784200560",
        "nombre": "Tramo Trazado en BARRIOS TRADICIONALES (SAN MIGUEL APINAHUIZCO)",
        "delegacion": "BARRIOS TRADICIONALES",
        "tipo_pavimento": "asfalto",
        "metros_lineales": 961.8,
        "ancho_calzada_m": 7,
        "superficie_m2": 6732.6,
        "costo_unitario_m2": 595,
        "presupuesto_estimado_mxn": 4005897,
        "baches_previos_corredor": 0,
        "peticiones_ciudadanas_corredor": 0
      }
    },
    {
      "type": "Feature",
      "geometry": {
        "type": "LineString",
        "coordinates": [
          [
            -99.69587,
            19.2565
          ],
          [
            -99.69427,
            19.2565
          ],
          [
            -99.69228,
            19.25648
          ],
          [
            -99.68686,
            19.25643
          ],
          [
            -99.69223,
            19.25646
          ],
          [
            -99.69291,
            19.2536
          ],
          [
            -99.69746,
            19.25395
          ]
        ]
      },
      "properties": {
        "id": "TRAZO-1790784348285",
        "nombre": "Tramo Trazado en CACALOMACAN (RANCHO SAN MIGUEL ZACANGO)",
        "delegacion": "CACALOMACAN",
        "tipo_pavimento": "asfalto",
        "metros_lineales": 2314.7,
        "ancho_calzada_m": 7,
        "superficie_m2": 16202.9,
        "costo_unitario_m2": 595,
        "presupuesto_estimado_mxn": 9640725.5,
        "baches_previos_corredor": 8,
        "peticiones_ciudadanas_corredor": 0
      }
    },
    {
      "type": "Feature",
      "geometry": {
        "type": "LineString",
        "coordinates": [
          [
            -99.68984,
            19.33651
          ],
          [
            -99.68997,
            19.33591
          ],
          [
            -99.69029,
            19.33592
          ],
          [
            -99.69023,
            19.33668
          ],
          [
            -99.69031,
            19.33667
          ],
          [
            -99.69036,
            19.33594
          ],
          [
            -99.69063,
            19.33594
          ],
          [
            -99.69065,
            19.33682
          ],
          [
            -99.69064,
            19.3352
          ],
          [
            -99.69063,
            19.33595
          ],
          [
            -99.69101,
            19.33592
          ],
          [
            -99.69136,
            19.33592
          ],
          [
            -99.69127,
            19.33703
          ],
          [
            -99.69142,
            19.33513
          ],
          [
            -99.6914,
            19.33511
          ],
          [
            -99.69108,
            19.33505
          ],
          [
            -99.69092,
            19.33507
          ],
          [
            -99.69068,
            19.33519
          ],
          [
            -99.69085,
            19.33511
          ],
          [
            -99.69096,
            19.33507
          ],
          [
            -99.69102,
            19.33505
          ],
          [
            -99.69136,
            19.33512
          ],
          [
            -99.69142,
            19.33511
          ],
          [
            -99.69178,
            19.33521
          ],
          [
            -99.69183,
            19.33586
          ],
          [
            -99.69144,
            19.33587
          ],
          [
            -99.69142,
            19.33586
          ],
          [
            -99.69182,
            19.33587
          ],
          [
            -99.69197,
            19.337
          ],
          [
            -99.69201,
            19.33704
          ],
          [
            -99.69177,
            19.33582
          ],
          [
            -99.69194,
            19.33579
          ],
          [
            -99.69256,
            19.33549
          ],
          [
            -99.69252,
            19.33542
          ],
          [
            -99.69241,
            19.3354
          ],
          [
            -99.69229,
            19.33538
          ],
          [
            -99.69219,
            19.33537
          ],
          [
            -99.69211,
            19.33535
          ],
          [
            -99.69206,
            19.33532
          ],
          [
            -99.69197,
            19.33528
          ],
          [
            -99.69186,
            19.33522
          ]
        ]
      },
      "properties": {
        "id": "TRAZO-1790784556285",
        "nombre": "Tramo Trazado en CALIXTLAHUACA (ZONA ARQUEOLOGICA)",
        "delegacion": "CALIXTLAHUACA",
        "tipo_pavimento": "asfalto",
        "metros_lineales": 1884.7,
        "ancho_calzada_m": 7,
        "superficie_m2": 13192.9,
        "costo_unitario_m2": 595,
        "presupuesto_estimado_mxn": 7849775.5,
        "baches_previos_corredor": 7,
        "peticiones_ciudadanas_corredor": 0
      }
    },
    {
      "type": "Feature",
      "geometry": {
        "type": "LineString",
        "coordinates": [
          [
            -99.67087,
            19.2546
          ],
          [
            -99.66924,
            19.25455
          ],
          [
            -99.66871,
            19.25454
          ],
          [
            -99.67019,
            19.25454
          ],
          [
            -99.67094,
            19.25211
          ],
          [
            -99.67076,
            19.25287
          ],
          [
            -99.67132,
            19.25287
          ],
          [
            -99.67018,
            19.25287
          ],
          [
            -99.66978,
            19.25285
          ],
          [
            -99.66952,
            19.25375
          ],
          [
            -99.66976,
            19.25299
          ],
          [
            -99.67003,
            19.25297
          ],
          [
            -99.66954,
            19.25449
          ],
          [
            -99.67033,
            19.25201
          ],
          [
            -99.67054,
            19.25124
          ],
          [
            -99.67106,
            19.24954
          ],
          [
            -99.67081,
            19.25024
          ],
          [
            -99.6715,
            19.25022
          ],
          [
            -99.6708,
            19.25028
          ],
          [
            -99.67023,
            19.25201
          ],
          [
            -99.67163,
            19.25196
          ]
        ]
      },
      "properties": {
        "id": "TRAZO-1790784873471",
        "nombre": "Tramo Trazado en CAPULTITLAN (LOS PINOS)",
        "delegacion": "CAPULTITLAN",
        "tipo_pavimento": "asfalto",
        "metros_lineales": 2517.8,
        "ancho_calzada_m": 7,
        "superficie_m2": 17624.6,
        "costo_unitario_m2": 595,
        "presupuesto_estimado_mxn": 10486637,
        "baches_previos_corredor": 85,
        "peticiones_ciudadanas_corredor": 4
      }
    },
    {
      "type": "Feature",
      "geometry": {
        "type": "LineString",
        "coordinates": [
          [
            -99.66236,
            19.28514
          ],
          [
            -99.65856,
            19.28522
          ],
          [
            -99.66112,
            19.2852
          ],
          [
            -99.66118,
            19.28577
          ],
          [
            -99.66119,
            19.28585
          ],
          [
            -99.661,
            19.28586
          ],
          [
            -99.66007,
            19.2859
          ],
          [
            -99.65983,
            19.28593
          ],
          [
            -99.65981,
            19.28561
          ],
          [
            -99.65985,
            19.28656
          ],
          [
            -99.65979,
            19.28597
          ],
          [
            -99.65965,
            19.28598
          ],
          [
            -99.65962,
            19.28599
          ],
          [
            -99.6596,
            19.286
          ],
          [
            -99.65959,
            19.28603
          ],
          [
            -99.65957,
            19.28615
          ],
          [
            -99.65956,
            19.28616
          ],
          [
            -99.65955,
            19.28618
          ],
          [
            -99.65952,
            19.28619
          ],
          [
            -99.65947,
            19.28619
          ],
          [
            -99.65942,
            19.28619
          ],
          [
            -99.65941,
            19.28618
          ]
        ]
      },
      "properties": {
        "id": "TRAZO-1790785016706",
        "nombre": "Tramo Trazado en CENTRO HISTORICO (LA MERCED (ALAMEDA))",
        "delegacion": "CENTRO HISTORICO",
        "tipo_pavimento": "asfalto",
        "metros_lineales": 1147.4,
        "ancho_calzada_m": 7,
        "superficie_m2": 8031.8,
        "costo_unitario_m2": 595,
        "presupuesto_estimado_mxn": 4778921,
        "baches_previos_corredor": 67,
        "peticiones_ciudadanas_corredor": 3
      }
    },
    {
      "type": "Feature",
      "geometry": {
        "type": "LineString",
        "coordinates": [
          [
            -99.67256,
            19.28116
          ],
          [
            -99.67398,
            19.28046
          ],
          [
            -99.67366,
            19.27971
          ],
          [
            -99.6732,
            19.2799
          ],
          [
            -99.67384,
            19.28111
          ],
          [
            -99.6719,
            19.27743
          ],
          [
            -99.67305,
            19.27941
          ],
          [
            -99.67301,
            19.27941
          ],
          [
            -99.67475,
            19.27857
          ]
        ]
      },
      "properties": {
        "id": "TRAZO-1790785690067",
        "nombre": "Tramo Trazado en CIUDAD UNIVERSITARIA (VICENTE GUERRERO)",
        "delegacion": "CIUDAD UNIVERSITARIA",
        "tipo_pavimento": "asfalto",
        "metros_lineales": 1378.6,
        "ancho_calzada_m": 7,
        "superficie_m2": 9650.2,
        "costo_unitario_m2": 595,
        "presupuesto_estimado_mxn": 5741869,
        "baches_previos_corredor": 46,
        "peticiones_ciudadanas_corredor": 1
      }
    },
    {
      "type": "Feature",
      "geometry": {
        "type": "LineString",
        "coordinates": [
          [
            -99.65876,
            19.26942
          ],
          [
            -99.65876,
            19.26942
          ],
          [
            -99.65846,
            19.2728
          ],
          [
            -99.65741,
            19.27267
          ],
          [
            -99.65743,
            19.27224
          ],
          [
            -99.65734,
            19.27266
          ],
          [
            -99.65674,
            19.2726
          ],
          [
            -99.65975,
            19.27289
          ],
          [
            -99.66034,
            19.26994
          ],
          [
            -99.66009,
            19.27139
          ],
          [
            -99.65878,
            19.27121
          ],
          [
            -99.65871,
            19.27006
          ],
          [
            -99.65666,
            19.26979
          ],
          [
            -99.65653,
            19.27154
          ],
          [
            -99.65855,
            19.27152
          ],
          [
            -99.65808,
            19.27147
          ],
          [
            -99.65814,
            19.27014
          ],
          [
            -99.65818,
            19.26994
          ],
          [
            -99.65762,
            19.26989
          ],
          [
            -99.65756,
            19.27146
          ]
        ]
      },
      "properties": {
        "id": "TRAZO-1790786249212",
        "nombre": "Tramo Trazado en COLON (COLON Y CIPRES II)",
        "delegacion": "COLON",
        "tipo_pavimento": "asfalto",
        "metros_lineales": 2807.3,
        "ancho_calzada_m": 7,
        "superficie_m2": 19651.1,
        "costo_unitario_m2": 595,
        "presupuesto_estimado_mxn": 11692404.5,
        "baches_previos_corredor": 50,
        "peticiones_ciudadanas_corredor": 1
      }
    },
    {
      "type": "Feature",
      "geometry": {
        "type": "LineString",
        "coordinates": [
          [
            -99.64376,
            19.2603
          ],
          [
            -99.6441,
            19.26134
          ],
          [
            -99.64567,
            19.26557
          ]
        ]
      },
      "properties": {
        "id": "TRAZO-1790787251773",
        "nombre": "Tramo Trazado en DEL PARQUE",
        "delegacion": "DEL PARQUE",
        "tipo_pavimento": "asfalto",
        "metros_lineales": 619.4,
        "ancho_calzada_m": 7,
        "superficie_m2": 4335.8,
        "costo_unitario_m2": 595,
        "presupuesto_estimado_mxn": 2579801,
        "baches_previos_corredor": 27,
        "peticiones_ciudadanas_corredor": 3
      }
    },
    {
      "type": "Feature",
      "geometry": {
        "type": "LineString",
        "coordinates": [
          [
            -99.53644,
            19.32376
          ],
          [
            -99.5361,
            19.32268
          ],
          [
            -99.53698,
            19.32249
          ],
          [
            -99.5361,
            19.32268
          ],
          [
            -99.53597,
            19.32222
          ],
          [
            -99.53678,
            19.32206
          ],
          [
            -99.53598,
            19.32222
          ],
          [
            -99.53504,
            19.31897
          ],
          [
            -99.5352,
            19.31945
          ],
          [
            -99.5295,
            19.32031
          ],
          [
            -99.5455,
            19.31806
          ],
          [
            -99.54648,
            19.32043
          ]
        ]
      },
      "properties": {
        "id": "TRAZO-1790787374428",
        "nombre": "Tramo Trazado en EL CERRILLO VISTA HERMOSA (EL EMBARCADERO)",
        "delegacion": "EL CERRILLO VISTA HERMOSA",
        "tipo_pavimento": "asfalto",
        "metros_lineales": 3556.9,
        "ancho_calzada_m": 7,
        "superficie_m2": 24898.3,
        "costo_unitario_m2": 595,
        "presupuesto_estimado_mxn": 14814488.5,
        "baches_previos_corredor": 40,
        "peticiones_ciudadanas_corredor": 0
      }
    },
    {
      "type": "Feature",
      "geometry": {
        "type": "LineString",
        "coordinates": [
          [
            -99.64358,
            19.29498
          ],
          [
            -99.64041,
            19.29498
          ],
          [
            -99.64036,
            19.29245
          ],
          [
            -99.63893,
            19.29243
          ],
          [
            -99.63887,
            19.29263
          ],
          [
            -99.63917,
            19.29372
          ],
          [
            -99.64156,
            19.29364
          ],
          [
            -99.6416,
            19.29445
          ],
          [
            -99.64039,
            19.29445
          ],
          [
            -99.64042,
            19.29498
          ],
          [
            -99.64075,
            19.29498
          ],
          [
            -99.64078,
            19.29449
          ],
          [
            -99.64077,
            19.29497
          ],
          [
            -99.64163,
            19.29499
          ],
          [
            -99.64161,
            19.29453
          ],
          [
            -99.64154,
            19.29245
          ],
          [
            -99.64099,
            19.29105
          ]
        ]
      },
      "properties": {
        "id": "TRAZO-1790787607047",
        "nombre": "Tramo Trazado en INDEPENDENCIA (REFORMA Y FERROCARRILES NACIONALES (SAN JUAN BAUTISTA))",
        "delegacion": "INDEPENDENCIA",
        "tipo_pavimento": "asfalto",
        "metros_lineales": 2121.2,
        "ancho_calzada_m": 7,
        "superficie_m2": 14848.4,
        "costo_unitario_m2": 595,
        "presupuesto_estimado_mxn": 8834798,
        "baches_previos_corredor": 24,
        "peticiones_ciudadanas_corredor": 1
      }
    },
    {
      "type": "Feature",
      "geometry": {
        "type": "LineString",
        "coordinates": [
          [
            -99.64404,
            19.30569
          ],
          [
            -99.644,
            19.30576
          ],
          [
            -99.64397,
            19.30585
          ],
          [
            -99.64392,
            19.306
          ],
          [
            -99.64347,
            19.30639
          ],
          [
            -99.6412,
            19.30819
          ],
          [
            -99.63981,
            19.3094
          ],
          [
            -99.63666,
            19.31187
          ],
          [
            -99.63659,
            19.31179
          ],
          [
            -99.63722,
            19.31093
          ],
          [
            -99.63763,
            19.3099
          ],
          [
            -99.63784,
            19.30951
          ],
          [
            -99.63807,
            19.30911
          ],
          [
            -99.63892,
            19.30792
          ],
          [
            -99.64113,
            19.30552
          ],
          [
            -99.64246,
            19.30303
          ]
        ]
      },
      "properties": {
        "id": "TRAZO-1790787759418",
        "nombre": "Tramo Trazado en LA MAQUINITA (TLACOPA)",
        "delegacion": "LA MAQUINITA",
        "tipo_pavimento": "asfalto",
        "metros_lineales": 2212.9,
        "ancho_calzada_m": 7,
        "superficie_m2": 15490.3,
        "costo_unitario_m2": 595,
        "presupuesto_estimado_mxn": 9216728.5,
        "baches_previos_corredor": 79,
        "peticiones_ciudadanas_corredor": 1
      }
    },
    {
      "type": "Feature",
      "geometry": {
        "type": "LineString",
        "coordinates": [
          [
            -99.64315,
            19.3022
          ],
          [
            -99.64403,
            19.30219
          ],
          [
            -99.64434,
            19.30219
          ],
          [
            -99.64426,
            19.3022
          ],
          [
            -99.64433,
            19.3041
          ],
          [
            -99.64418,
            19.30413
          ],
          [
            -99.64414,
            19.30413
          ],
          [
            -99.64408,
            19.30409
          ],
          [
            -99.64407,
            19.30404
          ],
          [
            -99.64388,
            19.30378
          ],
          [
            -99.64387,
            19.30375
          ],
          [
            -99.6443,
            19.30373
          ],
          [
            -99.64395,
            19.30374
          ],
          [
            -99.6439,
            19.30374
          ],
          [
            -99.64385,
            19.30224
          ],
          [
            -99.64349,
            19.30225
          ],
          [
            -99.64355,
            19.30376
          ],
          [
            -99.64389,
            19.30375
          ],
          [
            -99.64316,
            19.30376
          ],
          [
            -99.64298,
            19.30335
          ],
          [
            -99.64302,
            19.3033
          ],
          [
            -99.64311,
            19.30311
          ]
        ]
      },
      "properties": {
        "id": "TRAZO-1790787965627",
        "nombre": "Tramo Trazado en LA MAQUINITA (LOS ANGELES)",
        "delegacion": "LA MAQUINITA",
        "tipo_pavimento": "asfalto",
        "metros_lineales": 1068.7,
        "ancho_calzada_m": 7,
        "superficie_m2": 7480.9,
        "costo_unitario_m2": 595,
        "presupuesto_estimado_mxn": 4451135.5,
        "baches_previos_corredor": 91,
        "peticiones_ciudadanas_corredor": 1
      }
    },
    {
      "type": "Feature",
      "geometry": {
        "type": "LineString",
        "coordinates": [
          [
            -99.63846,
            19.24585
          ],
          [
            -99.63843,
            19.2467
          ],
          [
            -99.63816,
            19.24715
          ],
          [
            -99.63808,
            19.24576
          ],
          [
            -99.63812,
            19.2472
          ],
          [
            -99.63803,
            19.24724
          ],
          [
            -99.63775,
            19.24726
          ],
          [
            -99.63771,
            19.24573
          ],
          [
            -99.6377,
            19.24727
          ],
          [
            -99.63734,
            19.24728
          ],
          [
            -99.63731,
            19.24569
          ],
          [
            -99.63729,
            19.24727
          ],
          [
            -99.63698,
            19.24729
          ],
          [
            -99.63689,
            19.24566
          ],
          [
            -99.6369,
            19.24561
          ],
          [
            -99.63691,
            19.24729
          ],
          [
            -99.63655,
            19.24729
          ],
          [
            -99.63652,
            19.24594
          ],
          [
            -99.6365,
            19.24731
          ],
          [
            -99.63615,
            19.24729
          ],
          [
            -99.63608,
            19.246
          ],
          [
            -99.63609,
            19.24733
          ],
          [
            -99.63573,
            19.24735
          ],
          [
            -99.63572,
            19.24596
          ],
          [
            -99.63585,
            19.2455
          ],
          [
            -99.63563,
            19.24672
          ],
          [
            -99.63531,
            19.24671
          ],
          [
            -99.63541,
            19.24542
          ]
        ]
      },
      "properties": {
        "id": "TRAZO-1790788162590",
        "nombre": "Tramo Trazado en METROPOLITANA (LAS PALOMAS)",
        "delegacion": "METROPOLITANA",
        "tipo_pavimento": "asfalto",
        "metros_lineales": 2874.3,
        "ancho_calzada_m": 7,
        "superficie_m2": 20120.1,
        "costo_unitario_m2": 595,
        "presupuesto_estimado_mxn": 11971459.5,
        "baches_previos_corredor": 20,
        "peticiones_ciudadanas_corredor": 2
      }
    },
    {
      "type": "Feature",
      "geometry": {
        "type": "LineString",
        "coordinates": [
          [
            -99.66247,
            19.25927
          ],
          [
            -99.65967,
            19.25895
          ],
          [
            -99.65965,
            19.25913
          ],
          [
            -99.65814,
            19.25909
          ],
          [
            -99.65965,
            19.25916
          ],
          [
            -99.65962,
            19.25948
          ],
          [
            -99.65637,
            19.25939
          ],
          [
            -99.65637,
            19.25821
          ],
          [
            -99.65789,
            19.25815
          ],
          [
            -99.65796,
            19.25809
          ],
          [
            -99.65798,
            19.25805
          ],
          [
            -99.658,
            19.25798
          ],
          [
            -99.65812,
            19.25798
          ],
          [
            -99.65813,
            19.25797
          ],
          [
            -99.65897,
            19.25799
          ],
          [
            -99.65807,
            19.25795
          ],
          [
            -99.65792,
            19.25817
          ],
          [
            -99.6579,
            19.2573
          ],
          [
            -99.65785,
            19.25913
          ],
          [
            -99.65787,
            19.2582
          ],
          [
            -99.65751,
            19.2582
          ],
          [
            -99.6575,
            19.25911
          ],
          [
            -99.65754,
            19.25729
          ],
          [
            -99.65746,
            19.25819
          ],
          [
            -99.65718,
            19.2582
          ],
          [
            -99.65719,
            19.25733
          ],
          [
            -99.65716,
            19.25915
          ],
          [
            -99.65721,
            19.25829
          ],
          [
            -99.65689,
            19.25828
          ],
          [
            -99.65681,
            19.25916
          ],
          [
            -99.65683,
            19.25726
          ],
          [
            -99.65678,
            19.25819
          ],
          [
            -99.65636,
            19.25821
          ],
          [
            -99.65649,
            19.25714
          ]
        ]
      },
      "properties": {
        "id": "TRAZO-1790788463043",
        "nombre": "Tramo Trazado en MODERNA DE LA CRUZ (BOSQUES DE COLON)",
        "delegacion": "MODERNA DE LA CRUZ",
        "tipo_pavimento": "asfalto",
        "metros_lineales": 3430.8,
        "ancho_calzada_m": 7,
        "superficie_m2": 24015.6,
        "costo_unitario_m2": 595,
        "presupuesto_estimado_mxn": 14289282,
        "baches_previos_corredor": 106,
        "peticiones_ciudadanas_corredor": 3
      }
    },
    {
      "type": "Feature",
      "geometry": {
        "type": "LineString",
        "coordinates": [
          [
            -99.66812,
            19.27561
          ],
          [
            -99.66807,
            19.27711
          ],
          [
            -99.668,
            19.27903
          ],
          [
            -99.67083,
            19.27924
          ],
          [
            -99.66792,
            19.27905
          ],
          [
            -99.66748,
            19.27897
          ],
          [
            -99.66705,
            19.27876
          ],
          [
            -99.66667,
            19.27844
          ],
          [
            -99.66742,
            19.27731
          ],
          [
            -99.66743,
            19.27731
          ],
          [
            -99.66757,
            19.2774
          ],
          [
            -99.66761,
            19.27736
          ],
          [
            -99.66761,
            19.27735
          ],
          [
            -99.66745,
            19.27726
          ],
          [
            -99.66802,
            19.27642
          ],
          [
            -99.66797,
            19.27725
          ],
          [
            -99.66702,
            19.2787
          ],
          [
            -99.66745,
            19.27893
          ],
          [
            -99.66798,
            19.27815
          ],
          [
            -99.66851,
            19.27815
          ],
          [
            -99.66844,
            19.27908
          ],
          [
            -99.66857,
            19.27654
          ],
          [
            -99.6686,
            19.27607
          ],
          [
            -99.66831,
            19.27548
          ],
          [
            -99.66813,
            19.2756
          ],
          [
            -99.66803,
            19.27816
          ],
          [
            -99.66898,
            19.27818
          ],
          [
            -99.67016,
            19.27823
          ]
        ]
      },
      "properties": {
        "id": "TRAZO-1790788772836",
        "nombre": "Tramo Trazado en MORELOS (FEDERAL (ADOLFO LOPEZ MATEOS))",
        "delegacion": "MORELOS",
        "tipo_pavimento": "asfalto",
        "metros_lineales": 2976.1,
        "ancho_calzada_m": 7,
        "superficie_m2": 20832.7,
        "costo_unitario_m2": 595,
        "presupuesto_estimado_mxn": 12395456.5,
        "baches_previos_corredor": 100,
        "peticiones_ciudadanas_corredor": 12
      }
    },
    {
      "type": "Feature",
      "geometry": {
        "type": "LineString",
        "coordinates": [
          [
            -99.68243,
            19.27766
          ],
          [
            -99.68274,
            19.28165
          ],
          [
            -99.68323,
            19.28176
          ],
          [
            -99.68112,
            19.28138
          ],
          [
            -99.68106,
            19.28146
          ],
          [
            -99.68018,
            19.28128
          ],
          [
            -99.68104,
            19.28144
          ],
          [
            -99.68109,
            19.28159
          ],
          [
            -99.68067,
            19.28159
          ],
          [
            -99.68106,
            19.28157
          ]
        ]
      },
      "properties": {
        "id": "TRAZO-1790788932939",
        "nombre": "Tramo Trazado en NUEVA OXTOTITLAN (NUEVA OXTOTITLAN I)",
        "delegacion": "NUEVA OXTOTITLAN",
        "tipo_pavimento": "asfalto",
        "metros_lineales": 1023.1,
        "ancho_calzada_m": 7,
        "superficie_m2": 7161.7,
        "costo_unitario_m2": 595,
        "presupuesto_estimado_mxn": 4261211.5,
        "baches_previos_corredor": 84,
        "peticiones_ciudadanas_corredor": 0
      }
    },
    {
      "type": "Feature",
      "geometry": {
        "type": "LineString",
        "coordinates": [
          [
            -99.67025,
            19.26136
          ],
          [
            -99.67114,
            19.25671
          ]
        ]
      },
      "properties": {
        "id": "TRAZO-1790789103207",
        "nombre": "Tramo Trazado en OCHO CEDROS (OCHO CEDROS, SEGUNDA SECCION)",
        "delegacion": "OCHO CEDROS",
        "tipo_pavimento": "asfalto",
        "metros_lineales": 525.4,
        "ancho_calzada_m": 7,
        "superficie_m2": 3677.8,
        "costo_unitario_m2": 595,
        "presupuesto_estimado_mxn": 2188291,
        "baches_previos_corredor": 17,
        "peticiones_ciudadanas_corredor": 0
      }
    },
    {
      "type": "Feature",
      "geometry": {
        "type": "LineString",
        "coordinates": [
          [
            -99.63747,
            19.36326
          ],
          [
            -99.6309,
            19.3636
          ],
          [
            -99.63103,
            19.35958
          ],
          [
            -99.63712,
            19.35966
          ],
          [
            -99.62588,
            19.36002
          ],
          [
            -99.63051,
            19.35921
          ],
          [
            -99.63055,
            19.3582
          ],
          [
            -99.63173,
            19.35828
          ],
          [
            -99.63186,
            19.35935
          ],
          [
            -99.63298,
            19.35948
          ],
          [
            -99.63302,
            19.35824
          ],
          [
            -99.63197,
            19.35824
          ]
        ]
      },
      "properties": {
        "id": "TRAZO-1790789601509",
        "nombre": "Tramo Trazado en SAN ANDRES CUEXCONTITLAN (NATIVIDAD)",
        "delegacion": "SAN ANDRES CUEXCONTITLAN",
        "tipo_pavimento": "asfalto",
        "metros_lineales": 4173,
        "ancho_calzada_m": 7,
        "superficie_m2": 29211,
        "costo_unitario_m2": 595,
        "presupuesto_estimado_mxn": 17380545,
        "baches_previos_corredor": 1,
        "peticiones_ciudadanas_corredor": 0
      }
    },
    {
      "type": "Feature",
      "geometry": {
        "type": "LineString",
        "coordinates": [
          [
            -99.70907,
            19.26511
          ],
          [
            -99.70908,
            19.26243
          ],
          [
            -99.70724,
            19.26232
          ],
          [
            -99.70771,
            19.26222
          ],
          [
            -99.70771,
            19.26245
          ],
          [
            -99.70767,
            19.26256
          ],
          [
            -99.70767,
            19.26275
          ],
          [
            -99.70761,
            19.26292
          ],
          [
            -99.70753,
            19.26305
          ],
          [
            -99.70706,
            19.26351
          ],
          [
            -99.70691,
            19.26417
          ],
          [
            -99.70688,
            19.26579
          ],
          [
            -99.70907,
            19.26512
          ]
        ]
      },
      "properties": {
        "id": "TRAZO-1790789735409",
        "nombre": "Tramo Trazado en SAN ANTONIO BUENAVISTA (JOSE MARIA HEREDIA)",
        "delegacion": "SAN ANTONIO BUENAVISTA",
        "tipo_pavimento": "asfalto",
        "metros_lineales": 1206.3,
        "ancho_calzada_m": 7,
        "superficie_m2": 8444.1,
        "costo_unitario_m2": 595,
        "presupuesto_estimado_mxn": 5024239.5,
        "baches_previos_corredor": 14,
        "peticiones_ciudadanas_corredor": 1
      }
    },
    {
      "type": "Feature",
      "geometry": {
        "type": "LineString",
        "coordinates": [
          [
            -99.69801,
            19.26817
          ],
          [
            -99.69783,
            19.26955
          ],
          [
            -99.69768,
            19.26963
          ],
          [
            -99.69768,
            19.26911
          ],
          [
            -99.69764,
            19.26965
          ],
          [
            -99.69729,
            19.26981
          ],
          [
            -99.69735,
            19.26814
          ],
          [
            -99.69724,
            19.26974
          ],
          [
            -99.69672,
            19.26969
          ],
          [
            -99.69671,
            19.27011
          ],
          [
            -99.69723,
            19.26983
          ],
          [
            -99.69673,
            19.26979
          ],
          [
            -99.69687,
            19.26824
          ],
          [
            -99.69677,
            19.26964
          ],
          [
            -99.6961,
            19.26951
          ],
          [
            -99.69565,
            19.26937
          ],
          [
            -99.69552,
            19.26932
          ],
          [
            -99.69548,
            19.26932
          ],
          [
            -99.69478,
            19.26916
          ],
          [
            -99.69666,
            19.26963
          ],
          [
            -99.69686,
            19.2686
          ],
          [
            -99.69676,
            19.26966
          ],
          [
            -99.69611,
            19.26954
          ],
          [
            -99.69594,
            19.27055
          ]
        ]
      },
      "properties": {
        "id": "TRAZO-1790789886181",
        "nombre": "Tramo Trazado en SAN BUENAVENTURA (ALAMEDA 2000)",
        "delegacion": "SAN BUENAVENTURA",
        "tipo_pavimento": "asfalto",
        "metros_lineales": 2079.9,
        "ancho_calzada_m": 7,
        "superficie_m2": 14559.3,
        "costo_unitario_m2": 595,
        "presupuesto_estimado_mxn": 8662783.5,
        "baches_previos_corredor": 16,
        "peticiones_ciudadanas_corredor": 6
      }
    },
    {
      "type": "Feature",
      "geometry": {
        "type": "LineString",
        "coordinates": [
          [
            -99.71954,
            19.42093
          ],
          [
            -99.71325,
            19.40581
          ],
          [
            -99.70943,
            19.39953
          ]
        ]
      },
      "properties": {
        "id": "TRAZO-1790790017330",
        "nombre": "Tramo Trazado en SAN CAYETANO MORELOS (SAN CAYETANO)",
        "delegacion": "SAN CAYETANO MORELOS",
        "tipo_pavimento": "asfalto",
        "metros_lineales": 2611.1,
        "ancho_calzada_m": 7,
        "superficie_m2": 18277.7,
        "costo_unitario_m2": 595,
        "presupuesto_estimado_mxn": 10875231.5,
        "baches_previos_corredor": 0,
        "peticiones_ciudadanas_corredor": 0
      }
    },
    {
      "type": "Feature",
      "geometry": {
        "type": "LineString",
        "coordinates": [
          [
            -99.62048,
            19.33643
          ],
          [
            -99.62523,
            19.33788
          ],
          [
            -99.62556,
            19.33726
          ],
          [
            -99.62075,
            19.33573
          ],
          [
            -99.62556,
            19.33727
          ],
          [
            -99.626,
            19.33635
          ],
          [
            -99.62119,
            19.33485
          ]
        ]
      },
      "properties": {
        "id": "TRAZO-1790790129112",
        "nombre": "Tramo Trazado en SAN CRISTOBAL HUICHOCHITLAN (LA CONCEPCION)",
        "delegacion": "SAN CRISTOBAL HUICHOCHITLAN",
        "tipo_pavimento": "asfalto",
        "metros_lineales": 2310.2,
        "ancho_calzada_m": 7,
        "superficie_m2": 16171.4,
        "costo_unitario_m2": 595,
        "presupuesto_estimado_mxn": 9621983,
        "baches_previos_corredor": 3,
        "peticiones_ciudadanas_corredor": 0
      }
    },
    {
      "type": "Feature",
      "geometry": {
        "type": "LineString",
        "coordinates": [
          [
            -99.64211,
            19.24138
          ],
          [
            -99.64208,
            19.24047
          ],
          [
            -99.64221,
            19.23911
          ],
          [
            -99.64235,
            19.23784
          ],
          [
            -99.6422,
            19.23891
          ],
          [
            -99.6448,
            19.23895
          ],
          [
            -99.63827,
            19.23908
          ],
          [
            -99.64022,
            19.23784
          ]
        ]
      },
      "properties": {
        "id": "TRAZO-1790790242471",
        "nombre": "Tramo Trazado en SAN FELIPE TLALMIMILOLPAN (DEL CENTRO)",
        "delegacion": "SAN FELIPE TLALMIMILOLPAN",
        "tipo_pavimento": "asfalto",
        "metros_lineales": 1720.6,
        "ancho_calzada_m": 7,
        "superficie_m2": 12044.2,
        "costo_unitario_m2": 595,
        "presupuesto_estimado_mxn": 7166299,
        "baches_previos_corredor": 18,
        "peticiones_ciudadanas_corredor": 2
      }
    },
    {
      "type": "Feature",
      "geometry": {
        "type": "LineString",
        "coordinates": [
          [
            -99.65653,
            19.22291
          ],
          [
            -99.6562,
            19.22171
          ],
          [
            -99.65585,
            19.22113
          ],
          [
            -99.65661,
            19.22117
          ],
          [
            -99.65661,
            19.22165
          ],
          [
            -99.6566,
            19.22179
          ],
          [
            -99.65663,
            19.22185
          ],
          [
            -99.65665,
            19.2219
          ],
          [
            -99.65666,
            19.22196
          ],
          [
            -99.65674,
            19.22209
          ],
          [
            -99.65664,
            19.22194
          ],
          [
            -99.65662,
            19.22183
          ],
          [
            -99.65661,
            19.22173
          ],
          [
            -99.6566,
            19.22117
          ],
          [
            -99.65741,
            19.22117
          ],
          [
            -99.65747,
            19.22243
          ],
          [
            -99.65739,
            19.22118
          ],
          [
            -99.65813,
            19.22119
          ],
          [
            -99.6582,
            19.22201
          ],
          [
            -99.65813,
            19.22126
          ],
          [
            -99.6578,
            19.22122
          ],
          [
            -99.65778,
            19.21987
          ],
          [
            -99.65777,
            19.21989
          ],
          [
            -99.65735,
            19.21999
          ],
          [
            -99.65642,
            19.22003
          ],
          [
            -99.65531,
            19.22026
          ],
          [
            -99.65542,
            19.22058
          ],
          [
            -99.65561,
            19.22082
          ],
          [
            -99.65578,
            19.22094
          ],
          [
            -99.6558,
            19.22103
          ],
          [
            -99.65581,
            19.22105
          ],
          [
            -99.65582,
            19.22108
          ],
          [
            -99.65586,
            19.22114
          ]
        ]
      },
      "properties": {
        "id": "TRAZO-1790790390449",
        "nombre": "Tramo Trazado en SAN JUAN TILAPA (EL DURAZNO)",
        "delegacion": "SAN JUAN TILAPA",
        "tipo_pavimento": "asfalto",
        "metros_lineales": 1687.9,
        "ancho_calzada_m": 7,
        "superficie_m2": 11815.3,
        "costo_unitario_m2": 595,
        "presupuesto_estimado_mxn": 7030103.5,
        "baches_previos_corredor": 36,
        "peticiones_ciudadanas_corredor": 0
      }
    },
    {
      "type": "Feature",
      "geometry": {
        "type": "LineString",
        "coordinates": [
          [
            -99.61532,
            19.31226
          ],
          [
            -99.61527,
            19.31226
          ],
          [
            -99.61208,
            19.31227
          ],
          [
            -99.61406,
            19.31225
          ],
          [
            -99.61471,
            19.30932
          ],
          [
            -99.61475,
            19.30921
          ],
          [
            -99.61487,
            19.30833
          ],
          [
            -99.61493,
            19.30784
          ],
          [
            -99.61523,
            19.30739
          ],
          [
            -99.61582,
            19.30652
          ],
          [
            -99.6161,
            19.30614
          ],
          [
            -99.61642,
            19.30581
          ]
        ]
      },
      "properties": {
        "id": "TRAZO-1790790476029",
        "nombre": "Tramo Trazado en SAN LORENZO TEPALTITLAN (RINCON DE SAN LORENZO)",
        "delegacion": "SAN LORENZO TEPALTITLAN",
        "tipo_pavimento": "asfalto",
        "metros_lineales": 1322.3,
        "ancho_calzada_m": 7,
        "superficie_m2": 9256.1,
        "costo_unitario_m2": 595,
        "presupuesto_estimado_mxn": 5507379.5,
        "baches_previos_corredor": 46,
        "peticiones_ciudadanas_corredor": 3
      }
    },
    {
      "type": "Feature",
      "geometry": {
        "type": "LineString",
        "coordinates": [
          [
            -99.67992,
            19.32703
          ],
          [
            -99.67935,
            19.32627
          ],
          [
            -99.67925,
            19.32605
          ],
          [
            -99.67883,
            19.32527
          ],
          [
            -99.67847,
            19.32458
          ],
          [
            -99.67825,
            19.32399
          ],
          [
            -99.67777,
            19.32273
          ],
          [
            -99.67733,
            19.32148
          ],
          [
            -99.67694,
            19.31984
          ],
          [
            -99.67669,
            19.31929
          ],
          [
            -99.67655,
            19.31897
          ],
          [
            -99.67612,
            19.31821
          ],
          [
            -99.67553,
            19.31806
          ],
          [
            -99.67519,
            19.31804
          ],
          [
            -99.67499,
            19.31805
          ],
          [
            -99.67468,
            19.31812
          ],
          [
            -99.67447,
            19.31818
          ],
          [
            -99.67423,
            19.31822
          ],
          [
            -99.67392,
            19.31832
          ],
          [
            -99.67377,
            19.31842
          ],
          [
            -99.67357,
            19.31855
          ],
          [
            -99.67343,
            19.31856
          ],
          [
            -99.67329,
            19.3186
          ],
          [
            -99.67318,
            19.31858
          ]
        ]
      },
      "properties": {
        "id": "TRAZO-1790790923536",
        "nombre": "Tramo Trazado en SAN MARCOS YACHIHUACALTEPEC (SUR)",
        "delegacion": "SAN MARCOS YACHIHUACALTEPEC",
        "tipo_pavimento": "asfalto",
        "metros_lineales": 1389.5,
        "ancho_calzada_m": 7,
        "superficie_m2": 9726.5,
        "costo_unitario_m2": 595,
        "presupuesto_estimado_mxn": 5787267.5,
        "baches_previos_corredor": 46,
        "peticiones_ciudadanas_corredor": 0
      }
    },
    {
      "type": "Feature",
      "geometry": {
        "type": "LineString",
        "coordinates": [
          [
            -99.69561,
            19.35683
          ],
          [
            -99.69561,
            19.35496
          ],
          [
            -99.69527,
            19.35115
          ],
          [
            -99.69578,
            19.35111
          ],
          [
            -99.69699,
            19.35107
          ],
          [
            -99.69875,
            19.35119
          ],
          [
            -99.70085,
            19.3514
          ],
          [
            -99.70669,
            19.3514
          ],
          [
            -99.69518,
            19.35103
          ],
          [
            -99.69488,
            19.342
          ],
          [
            -99.69493,
            19.34013
          ],
          [
            -99.69476,
            19.35828
          ]
        ]
      },
      "properties": {
        "id": "TRAZO-1790791261210",
        "nombre": "Tramo Trazado en SAN MARTIN TOLTEPEC (SAN MARTIN)",
        "delegacion": "SAN MARTIN TOLTEPEC",
        "tipo_pavimento": "asfalto",
        "metros_lineales": 6272.3,
        "ancho_calzada_m": 7,
        "superficie_m2": 43906.1,
        "costo_unitario_m2": 595,
        "presupuesto_estimado_mxn": 26124129.5,
        "baches_previos_corredor": 0,
        "peticiones_ciudadanas_corredor": 0
      }
    },
    {
      "type": "Feature",
      "geometry": {
        "type": "LineString",
        "coordinates": [
          [
            -99.6032,
            19.32699
          ],
          [
            -99.60192,
            19.32698
          ],
          [
            -99.60192,
            19.32624
          ],
          [
            -99.60193,
            19.32697
          ],
          [
            -99.59972,
            19.32698
          ],
          [
            -99.59899,
            19.32699
          ],
          [
            -99.59874,
            19.32689
          ],
          [
            -99.59875,
            19.32632
          ],
          [
            -99.59873,
            19.32688
          ],
          [
            -99.59866,
            19.32684
          ],
          [
            -99.59719,
            19.32596
          ],
          [
            -99.5972,
            19.32556
          ],
          [
            -99.59932,
            19.32554
          ],
          [
            -99.59981,
            19.32557
          ],
          [
            -99.60019,
            19.32572
          ],
          [
            -99.6008,
            19.32573
          ],
          [
            -99.6014,
            19.32574
          ],
          [
            -99.60173,
            19.32577
          ],
          [
            -99.60182,
            19.32577
          ],
          [
            -99.60185,
            19.32577
          ],
          [
            -99.60191,
            19.32576
          ],
          [
            -99.60193,
            19.32624
          ],
          [
            -99.60192,
            19.32696
          ],
          [
            -99.60314,
            19.32697
          ],
          [
            -99.603,
            19.3226
          ]
        ]
      },
      "properties": {
        "id": "TRAZO-1790791498791",
        "nombre": "Tramo Trazado en SAN MATEO OTZACATIPAN (ORIENTE II)",
        "delegacion": "SAN MATEO OTZACATIPAN",
        "tipo_pavimento": "asfalto",
        "metros_lineales": 2241.8,
        "ancho_calzada_m": 7,
        "superficie_m2": 15692.6,
        "costo_unitario_m2": 595,
        "presupuesto_estimado_mxn": 9337097,
        "baches_previos_corredor": 32,
        "peticiones_ciudadanas_corredor": 0
      }
    },
    {
      "type": "Feature",
      "geometry": {
        "type": "LineString",
        "coordinates": [
          [
            -99.63888,
            19.38264
          ],
          [
            -99.63875,
            19.3825
          ],
          [
            -99.63872,
            19.38229
          ],
          [
            -99.63856,
            19.38191
          ],
          [
            -99.63814,
            19.38069
          ],
          [
            -99.6406,
            19.37488
          ],
          [
            -99.64225,
            19.37338
          ]
        ]
      },
      "properties": {
        "id": "TRAZO-1790791559206",
        "nombre": "Tramo Trazado en SAN PABLO AUTOPAN (SAN DIEGO)",
        "delegacion": "SAN PABLO AUTOPAN",
        "tipo_pavimento": "asfalto",
        "metros_lineales": 1168.4,
        "ancho_calzada_m": 7,
        "superficie_m2": 8178.8,
        "costo_unitario_m2": 595,
        "presupuesto_estimado_mxn": 4866386,
        "baches_previos_corredor": 0,
        "peticiones_ciudadanas_corredor": 4
      }
    },
    {
      "type": "Feature",
      "geometry": {
        "type": "LineString",
        "coordinates": [
          [
            -99.58525,
            19.33881
          ],
          [
            -99.58644,
            19.32195
          ],
          [
            -99.58472,
            19.32175
          ],
          [
            -99.58461,
            19.32386
          ],
          [
            -99.58459,
            19.32428
          ],
          [
            -99.58628,
            19.32433
          ]
        ]
      },
      "properties": {
        "id": "TRAZO-1790791616793",
        "nombre": "Tramo Trazado en SAN PEDRO TOTOLTEPEC (BORDO DE LAS CANASTAS)",
        "delegacion": "SAN PEDRO TOTOLTEPEC",
        "tipo_pavimento": "asfalto",
        "metros_lineales": 2519.8,
        "ancho_calzada_m": 7,
        "superficie_m2": 17638.6,
        "costo_unitario_m2": 595,
        "presupuesto_estimado_mxn": 10494967,
        "baches_previos_corredor": 0,
        "peticiones_ciudadanas_corredor": 1
      }
    },
    {
      "type": "Feature",
      "geometry": {
        "type": "LineString",
        "coordinates": [
          [
            -99.63893,
            19.27574
          ],
          [
            -99.63618,
            19.27574
          ],
          [
            -99.63611,
            19.27568
          ],
          [
            -99.63613,
            19.27458
          ],
          [
            -99.63891,
            19.27457
          ],
          [
            -99.63492,
            19.27457
          ],
          [
            -99.63505,
            19.27467
          ],
          [
            -99.63467,
            19.27505
          ],
          [
            -99.63461,
            19.27501
          ],
          [
            -99.63495,
            19.27467
          ],
          [
            -99.6348,
            19.27453
          ],
          [
            -99.6348,
            19.27321
          ],
          [
            -99.63474,
            19.27315
          ]
        ]
      },
      "properties": {
        "id": "TRAZO-1790791682093",
        "nombre": "Tramo Trazado en SAN SEBASTIAN (VALLE DON CAMILO)",
        "delegacion": "SAN SEBASTIAN",
        "tipo_pavimento": "asfalto",
        "metros_lineales": 1445,
        "ancho_calzada_m": 7,
        "superficie_m2": 10115,
        "costo_unitario_m2": 595,
        "presupuesto_estimado_mxn": 6018425,
        "baches_previos_corredor": 24,
        "peticiones_ciudadanas_corredor": 1
      }
    },
    {
      "type": "Feature",
      "geometry": {
        "type": "LineString",
        "coordinates": [
          [
            -99.67915,
            19.29139
          ],
          [
            -99.67916,
            19.29137
          ],
          [
            -99.67799,
            19.29167
          ],
          [
            -99.67792,
            19.29273
          ],
          [
            -99.67728,
            19.29297
          ],
          [
            -99.6772,
            19.29284
          ],
          [
            -99.67602,
            19.293
          ],
          [
            -99.67583,
            19.29343
          ],
          [
            -99.67601,
            19.293
          ],
          [
            -99.67607,
            19.29267
          ],
          [
            -99.67642,
            19.29262
          ],
          [
            -99.67707,
            19.29199
          ],
          [
            -99.67745,
            19.2919
          ],
          [
            -99.67738,
            19.292
          ],
          [
            -99.67738,
            19.29252
          ],
          [
            -99.67781,
            19.29239
          ],
          [
            -99.67794,
            19.29234
          ],
          [
            -99.67798,
            19.29174
          ],
          [
            -99.67752,
            19.29189
          ],
          [
            -99.67742,
            19.29192
          ],
          [
            -99.67735,
            19.29193
          ],
          [
            -99.67735,
            19.29154
          ],
          [
            -99.67729,
            19.29186
          ],
          [
            -99.67708,
            19.29203
          ],
          [
            -99.67663,
            19.29195
          ],
          [
            -99.67671,
            19.29139
          ],
          [
            -99.67717,
            19.29104
          ],
          [
            -99.67687,
            19.29095
          ],
          [
            -99.67635,
            19.29133
          ],
          [
            -99.67667,
            19.29111
          ],
          [
            -99.67695,
            19.29114
          ],
          [
            -99.67699,
            19.29114
          ],
          [
            -99.67711,
            19.29102
          ]
        ]
      },
      "properties": {
        "id": "TRAZO-1790791798803",
        "nombre": "Tramo Trazado en SANCHEZ (LA TERESONA I)",
        "delegacion": "SANCHEZ",
        "tipo_pavimento": "asfalto",
        "metros_lineales": 1525.2,
        "ancho_calzada_m": 7,
        "superficie_m2": 10676.4,
        "costo_unitario_m2": 595,
        "presupuesto_estimado_mxn": 6352458,
        "baches_previos_corredor": 0,
        "peticiones_ciudadanas_corredor": 2
      }
    },
    {
      "type": "Feature",
      "geometry": {
        "type": "LineString",
        "coordinates": [
          [
            -99.61413,
            19.29698
          ],
          [
            -99.60523,
            19.29675
          ],
          [
            -99.61045,
            19.29685
          ],
          [
            -99.61061,
            19.28822
          ],
          [
            -99.61026,
            19.28843
          ],
          [
            -99.61007,
            19.29646
          ],
          [
            -99.60977,
            19.29648
          ],
          [
            -99.6097,
            19.29685
          ]
        ]
      },
      "properties": {
        "id": "TRAZO-1790791859384",
        "nombre": "Tramo Trazado en SANTA ANA TLAPALTITLAN (BUENA VISTA)",
        "delegacion": "SANTA ANA TLAPALTITLAN",
        "tipo_pavimento": "asfalto",
        "metros_lineales": 3452.1,
        "ancho_calzada_m": 7,
        "superficie_m2": 24164.7,
        "costo_unitario_m2": 595,
        "presupuesto_estimado_mxn": 14377996.5,
        "baches_previos_corredor": 4,
        "peticiones_ciudadanas_corredor": 0
      }
    },
    {
      "type": "Feature",
      "geometry": {
        "type": "LineString",
        "coordinates": [
          [
            -99.66778,
            19.33707
          ],
          [
            -99.66786,
            19.33715
          ],
          [
            -99.66744,
            19.33654
          ],
          [
            -99.65308,
            19.31923
          ]
        ]
      },
      "properties": {
        "id": "TRAZO-1790791907608",
        "nombre": "Tramo Trazado en SANTA CRUZ ATZCAPOTZALTONGO (SANTA CRUZ NORTE)",
        "delegacion": "SANTA CRUZ ATZCAPOTZALTONGO",
        "tipo_pavimento": "asfalto",
        "metros_lineales": 2537.5,
        "ancho_calzada_m": 7,
        "superficie_m2": 17762.5,
        "costo_unitario_m2": 595,
        "presupuesto_estimado_mxn": 10568687.5,
        "baches_previos_corredor": 0,
        "peticiones_ciudadanas_corredor": 0
      }
    },
    {
      "type": "Feature",
      "geometry": {
        "type": "LineString",
        "coordinates": [
          [
            -99.63907,
            19.27264
          ],
          [
            -99.63908,
            19.2715
          ],
          [
            -99.639,
            19.27188
          ],
          [
            -99.63849,
            19.27193
          ],
          [
            -99.63834,
            19.27261
          ],
          [
            -99.6384,
            19.27157
          ],
          [
            -99.63836,
            19.27214
          ],
          [
            -99.63565,
            19.2726
          ],
          [
            -99.63656,
            19.27246
          ]
        ]
      },
      "properties": {
        "id": "TRAZO-1790791970196",
        "nombre": "Tramo Trazado en SANTA MARIA DE LAS ROSAS (NUEVA SANTA MARIA DE LAS ROSAS)",
        "delegacion": "SANTA MARIA DE LAS ROSAS",
        "tipo_pavimento": "asfalto",
        "metros_lineales": 866,
        "ancho_calzada_m": 7,
        "superficie_m2": 6062,
        "costo_unitario_m2": 595,
        "presupuesto_estimado_mxn": 3606890,
        "baches_previos_corredor": 42,
        "peticiones_ciudadanas_corredor": 1
      }
    },
    {
      "type": "Feature",
      "geometry": {
        "type": "LineString",
        "coordinates": [
          [
            -99.59401,
            19.29349
          ],
          [
            -99.59409,
            19.29463
          ],
          [
            -99.59395,
            19.29731
          ],
          [
            -99.59369,
            19.30059
          ],
          [
            -99.59233,
            19.30308
          ],
          [
            -99.58645,
            19.30387
          ]
        ]
      },
      "properties": {
        "id": "TRAZO-1790792026005",
        "nombre": "Tramo Trazado en SANTA MARIA TOTOLTEPEC (EL OLIMPO)",
        "delegacion": "SANTA MARIA TOTOLTEPEC",
        "tipo_pavimento": "asfalto",
        "metros_lineales": 1725.9,
        "ancho_calzada_m": 7,
        "superficie_m2": 12081.3,
        "costo_unitario_m2": 595,
        "presupuesto_estimado_mxn": 7188373.5,
        "baches_previos_corredor": 46,
        "peticiones_ciudadanas_corredor": 3
      }
    },
    {
      "type": "Feature",
      "geometry": {
        "type": "LineString",
        "coordinates": [
          [
            -99.65668,
            19.33767
          ],
          [
            -99.65664,
            19.32394
          ],
          [
            -99.65664,
            19.32752
          ],
          [
            -99.65053,
            19.32775
          ],
          [
            -99.64772,
            19.32287
          ],
          [
            -99.64911,
            19.3253
          ],
          [
            -99.64921,
            19.3255
          ],
          [
            -99.64933,
            19.32085
          ],
          [
            -99.64763,
            19.32082
          ],
          [
            -99.65219,
            19.3208
          ]
        ]
      },
      "properties": {
        "id": "TRAZO-1790792089436",
        "nombre": "Tramo Trazado en SANTIAGO MILTEPEC (MILTEPEC NORTE)",
        "delegacion": "SANTIAGO MILTEPEC",
        "tipo_pavimento": "asfalto",
        "metros_lineales": 4689.7,
        "ancho_calzada_m": 7,
        "superficie_m2": 32827.9,
        "costo_unitario_m2": 595,
        "presupuesto_estimado_mxn": 19532600.5,
        "baches_previos_corredor": 0,
        "peticiones_ciudadanas_corredor": 0
      }
    },
    {
      "type": "Feature",
      "geometry": {
        "type": "LineString",
        "coordinates": [
          [
            -99.66785,
            19.23265
          ],
          [
            -99.66776,
            19.23007
          ],
          [
            -99.66776,
            19.2268
          ],
          [
            -99.66784,
            19.22562
          ],
          [
            -99.67067,
            19.22564
          ]
        ]
      },
      "properties": {
        "id": "TRAZO-1790792186104",
        "nombre": "Tramo Trazado en SANTIAGO TLACOTEPEC (SHIGANDE)",
        "delegacion": "SANTIAGO TLACOTEPEC",
        "tipo_pavimento": "asfalto",
        "metros_lineales": 1079.3,
        "ancho_calzada_m": 7,
        "superficie_m2": 7555.1,
        "costo_unitario_m2": 595,
        "presupuesto_estimado_mxn": 4495284.5,
        "baches_previos_corredor": 55,
        "peticiones_ciudadanas_corredor": 2
      }
    },
    {
      "type": "Feature",
      "geometry": {
        "type": "LineString",
        "coordinates": [
          [
            -99.67479,
            19.31325
          ],
          [
            -99.67427,
            19.31268
          ],
          [
            -99.67397,
            19.31258
          ],
          [
            -99.67369,
            19.31249
          ],
          [
            -99.67331,
            19.3124
          ],
          [
            -99.67291,
            19.31244
          ],
          [
            -99.67272,
            19.31244
          ],
          [
            -99.67231,
            19.31237
          ],
          [
            -99.66935,
            19.31257
          ],
          [
            -99.67222,
            19.31234
          ],
          [
            -99.6724,
            19.3122
          ],
          [
            -99.67255,
            19.31216
          ],
          [
            -99.67277,
            19.31205
          ],
          [
            -99.67313,
            19.31185
          ],
          [
            -99.67239,
            19.3122
          ],
          [
            -99.67315,
            19.31317
          ]
        ]
      },
      "properties": {
        "id": "TRAZO-1790792242084",
        "nombre": "Tramo Trazado en SANTIAGO TLAXOMULCO (LA PENA)",
        "delegacion": "SANTIAGO TLAXOMULCO",
        "tipo_pavimento": "asfalto",
        "metros_lineales": 1240.5,
        "ancho_calzada_m": 7,
        "superficie_m2": 8683.5,
        "costo_unitario_m2": 595,
        "presupuesto_estimado_mxn": 5166682.5,
        "baches_previos_corredor": 0,
        "peticiones_ciudadanas_corredor": 0
      }
    },
    {
      "type": "Feature",
      "geometry": {
        "type": "LineString",
        "coordinates": [
          [
            -99.58081,
            19.37306
          ],
          [
            -99.58236,
            19.37052
          ],
          [
            -99.58155,
            19.37007
          ],
          [
            -99.58333,
            19.37106
          ],
          [
            -99.58306,
            19.37087
          ],
          [
            -99.58363,
            19.36995
          ],
          [
            -99.58379,
            19.36963
          ],
          [
            -99.58401,
            19.36931
          ]
        ]
      },
      "properties": {
        "id": "TRAZO-1790792293496",
        "nombre": "Tramo Trazado en SAUCES (VILLAS SANTIN I)",
        "delegacion": "SAUCES",
        "tipo_pavimento": "asfalto",
        "metros_lineales": 876.8,
        "ancho_calzada_m": 7,
        "superficie_m2": 6137.6,
        "costo_unitario_m2": 595,
        "presupuesto_estimado_mxn": 3651872,
        "baches_previos_corredor": 42,
        "peticiones_ciudadanas_corredor": 18
      }
    },
    {
      "type": "Feature",
      "geometry": {
        "type": "LineString",
        "coordinates": [
          [
            -99.67777,
            19.26175
          ],
          [
            -99.6803,
            19.26204
          ],
          [
            -99.67781,
            19.26172
          ],
          [
            -99.67655,
            19.26329
          ],
          [
            -99.67636,
            19.26387
          ],
          [
            -99.68168,
            19.26436
          ]
        ]
      },
      "properties": {
        "id": "TRAZO-1790792359487",
        "nombre": "Tramo Trazado en SEMINARIO 2 DE MARZO (HEROES DEL 5 DE MAYO I)",
        "delegacion": "SEMINARIO 2 DE MARZO",
        "tipo_pavimento": "asfalto",
        "metros_lineales": 1378.9,
        "ancho_calzada_m": 7,
        "superficie_m2": 9652.3,
        "costo_unitario_m2": 595,
        "presupuesto_estimado_mxn": 5743118.5,
        "baches_previos_corredor": 21,
        "peticiones_ciudadanas_corredor": 1
      }
    },
    {
      "type": "Feature",
      "geometry": {
        "type": "LineString",
        "coordinates": [
          [
            -99.67015,
            19.26971
          ],
          [
            -99.66987,
            19.27143
          ],
          [
            -99.6675,
            19.27114
          ],
          [
            -99.66743,
            19.27119
          ],
          [
            -99.66738,
            19.27119
          ],
          [
            -99.66779,
            19.26939
          ],
          [
            -99.66796,
            19.26851
          ],
          [
            -99.66697,
            19.26822
          ],
          [
            -99.67002,
            19.26861
          ],
          [
            -99.66992,
            19.26951
          ],
          [
            -99.67021,
            19.26951
          ]
        ]
      },
      "properties": {
        "id": "TRAZO-1790792408526",
        "nombre": "Tramo Trazado en SEMINARIO CONCILIAR (SEMINARIO TERCERA SECCION)",
        "delegacion": "SEMINARIO CONCILIAR",
        "tipo_pavimento": "asfalto",
        "metros_lineales": 1325.9,
        "ancho_calzada_m": 7,
        "superficie_m2": 9281.3,
        "costo_unitario_m2": 595,
        "presupuesto_estimado_mxn": 5522373.5,
        "baches_previos_corredor": 18,
        "peticiones_ciudadanas_corredor": 1
      }
    },
    {
      "type": "Feature",
      "geometry": {
        "type": "LineString",
        "coordinates": [
          [
            -99.67583,
            19.27534
          ],
          [
            -99.67709,
            19.27699
          ],
          [
            -99.67718,
            19.27694
          ],
          [
            -99.67816,
            19.27818
          ]
        ]
      },
      "properties": {
        "id": "TRAZO-1790792437676",
        "nombre": "Tramo Trazado en SEMINARIO LAS TORRES (SEMINARIO SEGUNDA SECCION)",
        "delegacion": "SEMINARIO LAS TORRES",
        "tipo_pavimento": "asfalto",
        "metros_lineales": 409.2,
        "ancho_calzada_m": 7,
        "superficie_m2": 2864.4,
        "costo_unitario_m2": 595,
        "presupuesto_estimado_mxn": 1704318,
        "baches_previos_corredor": 40,
        "peticiones_ciudadanas_corredor": 1
      }
    },
    {
      "type": "Feature",
      "geometry": {
        "type": "LineString",
        "coordinates": [
          [
            -99.7195,
            19.32691
          ],
          [
            -99.71855,
            19.32632
          ],
          [
            -99.71823,
            19.32649
          ],
          [
            -99.71664,
            19.32662
          ],
          [
            -99.71546,
            19.3268
          ],
          [
            -99.71547,
            19.32701
          ],
          [
            -99.71545,
            19.32711
          ],
          [
            -99.7146,
            19.32717
          ],
          [
            -99.71539,
            19.32707
          ],
          [
            -99.71548,
            19.32685
          ],
          [
            -99.71668,
            19.32659
          ],
          [
            -99.71657,
            19.32512
          ],
          [
            -99.71691,
            19.32484
          ],
          [
            -99.71714,
            19.32464
          ],
          [
            -99.71811,
            19.32392
          ],
          [
            -99.71832,
            19.3233
          ],
          [
            -99.71835,
            19.32271
          ],
          [
            -99.71835,
            19.32257
          ],
          [
            -99.71787,
            19.32249
          ],
          [
            -99.71752,
            19.32246
          ],
          [
            -99.71669,
            19.32243
          ],
          [
            -99.71629,
            19.32251
          ],
          [
            -99.7167,
            19.32481
          ]
        ]
      },
      "properties": {
        "id": "TRAZO-1790792551950",
        "nombre": "Tramo Trazado en TECAXIC (TECAXIC PONIENTE)",
        "delegacion": "TECAXIC",
        "tipo_pavimento": "asfalto",
        "metros_lineales": 1818.5,
        "ancho_calzada_m": 7,
        "superficie_m2": 12729.5,
        "costo_unitario_m2": 595,
        "presupuesto_estimado_mxn": 7574052.5,
        "baches_previos_corredor": 13,
        "peticiones_ciudadanas_corredor": 3
      }
    },
    {
      "type": "Feature",
      "geometry": {
        "type": "LineString",
        "coordinates": [
          [
            -99.65373,
            19.42681
          ],
          [
            -99.6542,
            19.42899
          ],
          [
            -99.64458,
            19.4313
          ],
          [
            -99.64407,
            19.4309
          ],
          [
            -99.64407,
            19.43025
          ],
          [
            -99.64347,
            19.4307
          ],
          [
            -99.64274,
            19.43203
          ],
          [
            -99.64168,
            19.43122
          ],
          [
            -99.64202,
            19.43154
          ],
          [
            -99.64183,
            19.43222
          ]
        ]
      },
      "properties": {
        "id": "TRAZO-1790792595364",
        "nombre": "Tramo Trazado en TLACHALOYA (SAN JOSE LA COSTA)",
        "delegacion": "TLACHALOYA",
        "tipo_pavimento": "asfalto",
        "metros_lineales": 1948.7,
        "ancho_calzada_m": 7,
        "superficie_m2": 13640.9,
        "costo_unitario_m2": 595,
        "presupuesto_estimado_mxn": 8116335.5,
        "baches_previos_corredor": 0,
        "peticiones_ciudadanas_corredor": 0
      }
    },
    {
      "type": "Feature",
      "geometry": {
        "type": "LineString",
        "coordinates": [
          [
            -99.64827,
            19.28395
          ],
          [
            -99.64718,
            19.28024
          ],
          [
            -99.64731,
            19.28071
          ],
          [
            -99.64858,
            19.28034
          ],
          [
            -99.6425,
            19.28206
          ],
          [
            -99.64587,
            19.28109
          ],
          [
            -99.64682,
            19.28405
          ],
          [
            -99.64561,
            19.2802
          ]
        ]
      },
      "properties": {
        "id": "TRAZO-1790792637711",
        "nombre": "Tramo Trazado en SAN SEBASTIAN (SAN SEBASTIAN Y VERTICE)",
        "delegacion": "SAN SEBASTIAN",
        "tipo_pavimento": "asfalto",
        "metros_lineales": 2448,
        "ancho_calzada_m": 7,
        "superficie_m2": 17136,
        "costo_unitario_m2": 595,
        "presupuesto_estimado_mxn": 10195920,
        "baches_previos_corredor": 30,
        "peticiones_ciudadanas_corredor": 0
      }
    }
  ]
}